{
    "links": {
        "self": "http://www.neowsapp.com/rest/v1/neo/3799803?api_key=iIulBulltgU6a56xZRHN4H3l9WmuAYTsLGpBGhQ2"
    },
    "id": "3799803",
    "neo_reference_id": "3799803",
    "name": "(2018 EE1)",
    "designation": "2018 EE1",
    "nasa_jpl_url": "http://ssd.jpl.nasa.gov/sbdb.cgi?sstr=3799803",
    "absolute_magnitude_h": 24.8,
    "estimated_diameter": {
        "kilometers": {
            "estimated_diameter_min": 0.0291443905,
            "estimated_diameter_max": 0.0651688382
        },
        "meters": {
            "estimated_diameter_min": 29.1443904535,
            "estimated_diameter_max": 65.1688382168
        },
        "miles": {
            "estimated_diameter_min": 0.018109479,
            "estimated_diameter_max": 0.0404940262
        },
        "feet": {
            "estimated_diameter_min": 95.6180819754,
            "estimated_diameter_max": 213.8085311752
        }
    },
    "is_potentially_hazardous_asteroid": false,
    "close_approach_data": [
        {
            "close_approach_date": "1901-09-24",
            "close_approach_date_full": "1901-Sep-24 07:36",
            "epoch_date_close_approach": -2154443040000,
            "relative_velocity": {
                "kilometers_per_second": "11.6851239916",
                "kilometers_per_hour": "42066.4463695944",
                "miles_per_hour": "26138.4538567071"
            },
            "miss_distance": {
                "astronomical": "0.2131313999",
                "lunar": "82.9081145611",
                "kilometers": "31884003.455158213",
                "miles": "19811801.0616128194"
            },
            "orbiting_body": "Earth"
        },
        {
            "close_approach_date": "2013-03-07",
            "close_approach_date_full": "2013-Mar-07 18:45",
            "epoch_date_close_approach": 1362681900000,
            "relative_velocity": {
                "kilometers_per_second": "19.0385572539",
                "kilometers_per_hour": "68538.8061140486",
                "miles_per_hour": "42587.3487212543"
            },
            "miss_distance": {
                "astronomical": "0.0766153319",
                "lunar": "29.8033641091",
                "kilometers": "11461490.461583053",
                "miles": "7121839.9287220114"
            },
            "orbiting_body": "Earth"
        },
        {
            "close_approach_date": "2018-03-04",
            "close_approach_date_full": "2018-Mar-04 00:20",
            "epoch_date_close_approach": 1520122800000,
            "relative_velocity": {
                "kilometers_per_second": "16.8772705364",
                "kilometers_per_hour": "60758.1739309392",
                "miles_per_hour": "37752.7664628105"
            },
            "miss_distance": {
                "astronomical": "0.0123428156",
                "lunar": "4.8013552684",
                "kilometers": "1846458.923562772",
                "miles": "1147336.3724073736"
            },
            "orbiting_body": "Earth"
        },
        {
            "close_approach_date": "2077-09-06",
            "close_approach_date_full": "2077-Sep-06 05:15",
            "epoch_date_close_approach": 3398130900000,
            "relative_velocity": {
                "kilometers_per_second": "17.4475117924",
                "kilometers_per_hour": "62811.042452797",
                "miles_per_hour": "39028.3391285171"
            },
            "miss_distance": {
                "astronomical": "0.0194141283",
                "lunar": "7.5520959087",
                "kilometers": "2904312.241586721",
                "miles": "1804655.9439139098"
            },
            "orbiting_body": "Earth"
        }
    ],
    "orbital_data": {
        "orbit_id": "4",
        "orbit_determination_date": "2018-03-15 06:32:05",
        "first_observation_date": "2018-03-07",
        "last_observation_date": "2018-03-14",
        "data_arc_in_days": 7,
        "observations_used": 57,
        "orbit_uncertainty": "8",
        "minimum_orbit_intersection": ".00674737",
        "jupiter_tisserand_invariant": "4.563",
        "epoch_osculation": "2458186.5",
        "eccentricity": ".5318644001404164",
        "semi_major_axis": "1.402801628921396",
        "inclination": "13.77256711899879",
        "ascending_node_longitude": "165.8403420541832",
        "orbital_period": "606.8660175331225",
        "perihelion_distance": ".6567013820391189",
        "perihelion_argument": "268.3958483350883",
        "aphelion_distance": "2.148901875803674",
        "perihelion_time": "2458128.491092637771",
        "mean_anomaly": "34.41156045496095",
        "mean_motion": ".5932116638584913",
        "equinox": "J2000",
        "orbit_class": {
            "orbit_class_type": "APO",
            "orbit_class_description": "Near-Earth asteroid orbits which cross the Earth’s orbit similar to that of 1862 Apollo",
            "orbit_class_range": "a (semi-major axis) > 1.0 AU; q (perihelion) < 1.017 AU"
        }
    },
    "is_sentry_object": false
}